GLOBALSTAR M075 [+]     
1 37192U 10054E   24024.93595833 -.00000058  00000+0  25343-3 0  9992
2 37192  51.9957 292.1008 0000612  64.4319  15.8222 12.62269967611691
GLOBALSTAR M073 [+]     
1 37193U 10054F   24024.69796472 -.00000095  00000+0  50121-4 0  9992
2 37193  52.0033 206.2492 0001013  85.7517 354.7249 12.62271948613490
GLOBALSTAR M083 [+]     
1 37739U 11033A   24024.55277694 -.00000107  00000+0 -20316-4 0  9999
2 37739  51.9848 156.1186 0001008 118.7467 321.4239 12.62265396582851
GLOBALSTAR M088 [+]     
1 37740U 11033B   24024.28858433 -.00000078  00000+0  14584-3 0  9992
2 37740  51.9740  62.8433 0000527 154.1623 285.4991 12.62264244578002
GLOBALSTAR M091 [+]     
1 37741U 11033C   24024.30693955 -.00000083  00000+0  11378-3 0  9996
2 37741  52.0017  25.4317 0000278 158.2527 304.1580 12.62270408578797
GLOBALSTAR M085 [+]     
1 37742U 11033D   24024.68250825 -.00000083  00000+0  11404-3 0  9993
2 37742  51.9893 335.7798 0000231  92.4364 337.1540 12.62266778579355
GLOBALSTAR M081 [+]     
1 37743U 11033E   24024.07770833 -.00000094  00000+0  53246-4 0  9996
2 37743  51.9989 340.0930 0000070  37.0837  43.1890 12.62268655579426
GLOBALSTAR M089 [+]     
1 37744U 11033F   24024.90849837 -.00000060  00000+0  24473-3 0  9992
2 37744  51.9939 291.8876 0000783  44.0848  34.0436 12.62271841580377
